{
  "type": "FeatureCollection",
  "features": [
    {
      "type": "Feature",
      "properties": {
        "norad_id": 34350,
        "name": "IRIDIUM 33 DEB",
        "group": "iridium-33-debris",
        "lat": -26.026368745711398,
        "lon": -0.9654901360443036,
        "alt_km": 760.2624562772517,
        "timestamp": "2025-12-17T07:00:47.293061+00:00",
        "meta_object_name": "IRIDIUM 33 DEB",
        "meta_object_id": "1997-051ES",
        "meta_epoch": "2025-12-16T13:26:54.257280",
        "meta_mean_motion": 14.45395902,
        "meta_eccentricity": 0.00231296,
        "meta_inclination": 86.3273,
        "meta_ra_of_asc_node": 1.1493,
        "meta_arg_of_pericenter": 123.3706,
        "meta_mean_anomaly": 5.0322,
        "meta_ephemeris_type": 0,
        "meta_classification_type": "U",
        "meta_norad_cat_id": 34350,
        "meta_element_set_no": 999,
        "meta_rev_at_epoch": 88348,
        "meta_bstar": 0.00030095479,
        "meta_mean_motion_dot": 1.082e-05,
        "meta_mean_motion_ddot": 0,
        "tle_line1": "1 34350U 97051ES  25350.56035020  .00001082  00000+0  30095-3 0  9993",
        "tle_line2": "2 34350  86.3273   1.1493 0023129 123.3706   5.0322 14.45395902883488"
      },
      "geometry": {
        "type": "Point",
        "coordinates": [
          -0.9654901360443036,
          -26.026368745711398
        ]
      }
    },
    {
      "type": "Feature",
      "properties": {
        "norad_id": 34366,
        "name": "IRIDIUM 33 DEB",
        "group": "iridium-33-debris",
        "lat": 83.07761469293139,
        "lon": 78.8582144851612,
        "alt_km": 692.74411521414,
        "timestamp": "2025-12-17T07:00:47.293071+00:00",
        "meta_object_name": "IRIDIUM 33 DEB",
        "meta_object_id": "1997-051FJ",
        "meta_epoch": "2025-12-16T04:27:03.913344",
        "meta_mean_motion": 14.5408801,
        "meta_eccentricity": 0.00226911,
        "meta_inclination": 86.3701,
        "meta_ra_of_asc_node": 47.8151,
        "meta_arg_of_pericenter": 128.8458,
        "meta_mean_anomaly": 285.6209,
        "meta_ephemeris_type": 0,
        "meta_classification_type": "U",
        "meta_norad_cat_id": 34366,
        "meta_element_set_no": 999,
        "meta_rev_at_epoch": 88232,
        "meta_bstar": 0.00066965836,
        "meta_mean_motion_dot": 2.857e-05,
        "meta_mean_motion_ddot": 0,
        "tle_line1": "1 34366U 97051FJ  25350.18546196  .00002857  00000+0  66966-3 0  9996",
        "tle_line2": "2 34366  86.3701  47.8151 0022691 128.8458 285.6209 14.54088010882327"
      },
      "geometry": {
        "type": "Point",
        "coordinates": [
          78.8582144851612,
          83.07761469293139
        ]
      }
    },
    {
      "type": "Feature",
      "properties": {
        "norad_id": 34375,
        "name": "IRIDIUM 33 DEB",
        "group": "iridium-33-debris",
        "lat": 50.528095869978536,
        "lon": -3.4803787021000527,
        "alt_km": 756.0404120169042,
        "timestamp": "2025-12-17T07:00:47.293082+00:00",
        "meta_object_name": "IRIDIUM 33 DEB",
        "meta_object_id": "1997-051FT",
        "meta_epoch": "2025-12-16T11:55:18.280704",
        "meta_mean_motion": 14.17999291,
        "meta_eccentricity": 0.01035154,
        "meta_inclination": 86.4323,
        "meta_ra_of_asc_node": 181.1851,
        "meta_arg_of_pericenter": 114.9637,
        "meta_mean_anomaly": 275.7525,
        "meta_ephemeris_type": 0,
        "meta_classification_type": "U",
        "meta_norad_cat_id": 34375,
        "meta_element_set_no": 999,
        "meta_rev_at_epoch": 86765,
        "meta_bstar": 0.00039364135,
        "meta_mean_motion_dot": 8.69e-06,
        "meta_mean_motion_ddot": 0,
        "tle_line1": "1 34375U 97051FT  25350.49673936  .00000869  00000+0  39364-3 0  9996",
        "tle_line2": "2 34375  86.4323 181.1851 0103515 114.9637 275.7525 14.17999291867658"
      },
      "geometry": {
        "type": "Point",
        "coordinates": [
          -3.4803787021000527,
          50.528095869978536
        ]
      }
    },
    {
      "type": "Feature",
      "properties": {
        "norad_id": 34376,
        "name": "IRIDIUM 33 DEB",
        "group": "iridium-33-debris",
        "lat": 28.550347596487583,
        "lon": -177.52502714374907,
        "alt_km": 663.9991389642719,
        "timestamp": "2025-12-17T07:00:47.293092+00:00",
        "meta_object_name": "IRIDIUM 33 DEB",
        "meta_object_id": "1997-051FU",
        "meta_epoch": "2025-12-16T10:37:15.311712",
        "meta_mean_motion": 14.62620598,
        "meta_eccentricity": 0.00276075,
        "meta_inclination": 86.2983,
        "meta_ra_of_asc_node": 4.8755,
        "meta_arg_of_pericenter": 154.3706,
        "meta_mean_anomaly": 205.8882,
        "meta_ephemeris_type": 0,
        "meta_classification_type": "U",
        "meta_norad_cat_id": 34376,
        "meta_element_set_no": 999,
        "meta_rev_at_epoch": 88061,
        "meta_bstar": 0.00099744091,
        "meta_mean_motion_dot": 5.118e-05,
        "meta_mean_motion_ddot": 0,
        "tle_line1": "1 34376U 97051FU  25350.44253833  .00005118  00000+0  99744-3 0  9992",
        "tle_line2": "2 34376  86.2983   4.8755 0027607 154.3706 205.8882 14.62620598880617"
      },
      "geometry": {
        "type": "Point",
        "coordinates": [
          -177.52502714374907,
          28.550347596487583
        ]
      }
    },
    {
      "type": "Feature",
      "properties": {
        "norad_id": 34486,
        "name": "IRIDIUM 33 DEB",
        "group": "iridium-33-debris",
        "lat": -13.23766567411365,
        "lon": -169.22594044801207,
        "alt_km": 584.5790028281099,
        "timestamp": "2025-12-17T07:00:47.293103+00:00",
        "meta_object_name": "IRIDIUM 33 DEB",
        "meta_object_id": "1997-051GB",
        "meta_epoch": "2025-12-16T19:42:35.277696",
        "meta_mean_motion": 14.95984781,
        "meta_eccentricity": 0.00139155,
        "meta_inclination": 86.3929,
        "meta_ra_of_asc_node": 10.1412,
        "meta_arg_of_pericenter": 101.0315,
        "meta_mean_anomaly": 77.189,
        "meta_ephemeris_type": 0,
        "meta_classification_type": "U",
        "meta_norad_cat_id": 34486,
        "meta_element_set_no": 999,
        "meta_rev_at_epoch": 89047,
        "meta_bstar": 0.0016425428,
        "meta_mean_motion_dot": 0.00018499,
        "meta_mean_motion_ddot": 0,
        "tle_line1": "1 34486U 97051GB  25350.82124164  .00018499  00000+0  16425-2 0  9990",
        "tle_line2": "2 34486  86.3929  10.1412 0013915 101.0315  77.1890 14.95984781890479"
      },
      "geometry": {
        "type": "Point",
        "coordinates": [
          -169.22594044801207,
          -13.23766567411365
        ]
      }
    },
    {
      "type": "Feature",
      "properties": {
        "norad_id": 34487,
        "name": "IRIDIUM 33 DEB",
        "group": "iridium-33-debris",
        "lat": 65.41524717201105,
        "lon": 18.452383861300373,
        "alt_km": 725.8914956736253,
        "timestamp": "2025-12-17T07:00:47.293133+00:00",
        "meta_object_name": "IRIDIUM 33 DEB",
        "meta_object_id": "1997-051GC",
        "meta_epoch": "2025-12-16T19:53:25.180224",
        "meta_mean_motion": 14.43221481,
        "meta_eccentricity": 0.00330568,
        "meta_inclination": 86.3432,
        "meta_ra_of_asc_node": 10.6167,
        "meta_arg_of_pericenter": 115.638,
        "meta_mean_anomaly": 63.9936,
        "meta_ephemeris_type": 0,
        "meta_classification_type": "U",
        "meta_norad_cat_id": 34487,
        "meta_element_set_no": 999,
        "meta_rev_at_epoch": 88307,
        "meta_bstar": 0.00016832889,
        "meta_mean_motion_dot": 5.9e-06,
        "meta_mean_motion_ddot": 0,
        "tle_line1": "1 34487U 97051GC  25350.82876366  .00000590  00000+0  16833-3 0  9996",
        "tle_line2": "2 34487  86.3432  10.6167 0033056 115.6380  63.9936 14.43221481883078"
      },
      "geometry": {
        "type": "Point",
        "coordinates": [
          18.452383861300373,
          65.41524717201105
        ]
      }
    },
    {
      "type": "Feature",
      "properties": {
        "norad_id": 34488,
        "name": "IRIDIUM 33 DEB",
        "group": "iridium-33-debris",
        "lat": 14.30789447896264,
        "lon": -55.50389880250686,
        "alt_km": 468.12089006702445,
        "timestamp": "2025-12-17T07:00:47.293146+00:00",
        "meta_object_name": "IRIDIUM 33 DEB",
        "meta_object_id": "1997-051GD",
        "meta_epoch": "2025-12-16T21:32:08.244096",
        "meta_mean_motion": 15.30456144,
        "meta_eccentricity": 0.00119742,
        "meta_inclination": 86.3226,
        "meta_ra_of_asc_node": 303.7522,
        "meta_arg_of_pericenter": 44.4927,
        "meta_mean_anomaly": 315.7281,
        "meta_ephemeris_type": 0,
        "meta_classification_type": "U",
        "meta_norad_cat_id": 34488,
        "meta_element_set_no": 999,
        "meta_rev_at_epoch": 89303,
        "meta_bstar": 0.0036758625,
        "meta_mean_motion_dot": 0.00109835,
        "meta_mean_motion_ddot": 0,
        "tle_line1": "1 34488U 97051GD  25350.89731764  .00109835  00000+0  36759-2 0  9996",
        "tle_line2": "2 34488  86.3226 303.7522 0011974  44.4927 315.7281 15.30456144893033"
      },
      "geometry": {
        "type": "Point",
        "coordinates": [
          -55.50389880250686,
          14.30789447896264
        ]
      }
    }
  ]
}